NORAD_CAT_ID,OBJECT_NAME,OBJECT_TYPE,EPOCH,MEAN_MOTION,ECCENTRICITY,INCLINATION,RA_OF_ASC_NODE,ARG_OF_PERICENTER,MEAN_ANOMALY,BSTAR,MEAN_MOTION_DOT,MEAN_MOTION_DDOT,TLE_LINE0,TLE_LINE1,TLE_LINE2,SEMIMAJOR_AXIS,PERIOD,APOGEE,PERIGEE,DECAYED
54010.0,STARLINK-5127,PAYLOAD,2023-12-22 22:07:42,15.08843052,0.0001493,53.2151,229.9108,98.6289,261.4872,6.4473e-05,7.38e-06,0.0,0 STARLINK-5127,1 54010U 22125AY  23356.92202468  .00000738  00000-0  64473-4 0  9990,2 54010  53.2151 229.9108 0001493  98.6289 261.4872 15.08843052 67660,6917.871,95.437,540.769,538.703,0.0
54010.0,STARLINK-5127,PAYLOAD,2023-12-23 18:47:43,15.0884287,0.0001444,53.2153,226.0421,99.1513,260.9642,0.00019787,2.863e-05,0.0,0 STARLINK-5127,1 54010U 22125AY  23357.78314649  .00002863  00000-0  19787-3 0  9998,2 54010  53.2153 226.0421 0001444  99.1513 260.9642 15.08842870 67846,6917.872,95.437,540.736,538.738,0.0
54010.0,STARLINK-5127,PAYLOAD,2023-12-23 21:58:30,15.08844791,0.0001469,53.2155,225.4474,96.171,263.945,0.00021437,3.126e-05,0.0,0 STARLINK-5127,1 54010U 22125AY  23357.91562565  .00003126  00000-0  21437-3 0  9993,2 54010  53.2155 225.4474 0001469  96.1710 263.9450 15.08844791 67813,6917.866,95.437,540.747,538.715,0.0
54010.0,STARLINK-5127,PAYLOAD,2023-12-24 01:09:16,15.0884833,0.0001429,53.2153,224.8504,101.0909,259.0243,0.00025179,3.722e-05,0.0,0 STARLINK-5127,1 54010U 22125AY  23358.04810306  .00003722  00000-0  25179-3 0  9996,2 54010  53.2153 224.8504 0001429 101.0909 259.0243 15.08848330 67831,6917.855,95.437,540.708,538.731,0.0
54010.0,STARLINK-5127,PAYLOAD,2023-12-24 20:13:53,15.088459,0.0001433,53.2151,221.281,98.154,261.9614,0.00010866,1.442e-05,0.0,0 STARLINK-5127,1 54010U 22125AY  23358.84298322  .00001442  00000-0  10866-3 0  9996,2 54010  53.2151 221.2810 0001433  98.1540 261.9614 15.08845900 68006,6917.862,95.437,540.719,538.736,0.0
54010.0,STARLINK-5127,PAYLOAD,2023-12-24 21:49:16,15.0884832,0.0001453,53.2154,220.9831,101.1263,258.9892,0.00011185,1.493e-05,0.0,0 STARLINK-5127,1 54010U 22125AY  23358.90922176  .00001493  00000-0  11185-3 0  9995,2 54010  53.2154 220.9831 0001453 101.1263 258.9892 15.08848320 67964,6917.855,95.437,540.725,538.715,0.0
54010.0,STARLINK-5127,PAYLOAD,2023-12-25 20:04:41,15.0884032,0.0001495,53.217,216.8192,115.0314,245.0833,4.4659e-06,-2.17e-06,0.0,0 STARLINK-5127,1 54010U 22125AY  23359.83658658 -.00000217  00000-0  44659-5 0  9997,2 54010  53.2170 216.8192 0001495 115.0314 245.0833 15.08840320 68159,6917.879,95.438,540.779,538.71,0.0
54010.0,STARLINK-5127,PAYLOAD,2023-12-25 21:40:04,15.08840342,0.0001525,53.2171,216.5218,113.6697,246.4455,-7.7912e-06,-4.12e-06,0.0,0 STARLINK-5127,1 54010U 22125AY  23359.90282655 -.00000412  00000-0 -77912-5 0  9991,2 54010  53.2171 216.5218 0001525 113.6697 246.4455 15.08840342 68113,6917.879,95.438,540.799,538.689,0.0
54010.0,STARLINK-5127,PAYLOAD,2023-12-26 13:33:55,15.08838531,0.0001596,53.2173,213.5523,102.7589,257.3582,-3.2069e-05,-7.98e-06,0.0,0 STARLINK-5127,1 54010U 22125AY  23360.56522948 -.00000798  00000-0 -32069-4 0  9997,2 54010  53.2173 213.5523 0001596 102.7589 257.3582 15.08838531 68218,6917.885,95.438,540.854,538.646,0.0
54010.0,STARLINK-5127,PAYLOAD,2023-12-26 19:55:28,15.08840337,0.0001613,53.2173,212.3637,115.5831,244.5328,-4.4382e-05,-9.94e-06,0.0,0 STARLINK-5127,1 54010U 22125AY  23360.83019018 -.00000994  00000-0 -44382-4 0  9995,2 54010  53.2173 212.3637 0001613 115.5831 244.5328 15.08840337 68250,6917.879,95.438,540.86,538.629,0.0
54010.0,STARLINK-5127,PAYLOAD,2023-12-27 19:46:15,15.08838456,0.0001545,53.217,207.9031,112.6614,247.4542,9.5355e-05,1.23e-05,0.0,0 STARLINK-5127,1 54010U 22125AY  23361.82379044  .00001230  00000-0  95355-4 0  9991,2 54010  53.2170 207.9031 0001545 112.6614 247.4542 15.08838456 68457,6917.885,95.438,540.819,538.681,0.0
54010.0,STARLINK-5127,PAYLOAD,2023-12-27 21:21:38,15.08839256,0.0001399,53.2165,207.6058,104.2608,255.854,9.5836e-05,1.238e-05,0.0,0 STARLINK-5127,1 54010U 22125AY  23361.89003002  .00001238  00000-0  95836-4 0  9998,2 54010  53.2165 207.6058 0001399 104.2608 255.8540 15.08839256 68410,6917.883,95.438,540.715,538.78,0.0
54010.0,STARLINK-5127,PAYLOAD,2023-12-28 13:15:30,15.08838508,0.000128,53.2158,204.6307,87.6679,272.446,8.4432e-05,1.056e-05,0.0,0 STARLINK-5127,1 54010U 22125AY  23362.55243280  .00001056  00000-0  84432-4 0  9994,2 54010  53.2158 204.6307 0001280  87.6679 272.4460 15.08838508 68513,6917.885,95.438,540.635,538.864,0.0
54010.0,STARLINK-5127,PAYLOAD,2023-12-28 21:12:25,15.08838557,0.0001324,53.2161,203.1434,87.1463,272.9681,6.5638e-05,7.57e-06,0.0,0 STARLINK-5127,1 54010U 22125AY  23362.88363333  .00000757  00000-0  65638-4 0  9996,2 54010  53.2161 203.1434 0001324  87.1463 272.9681 15.08838557 68566,6917.885,95.438,540.666,538.834,0.0
54010.0,STARLINK-5127,PAYLOAD,2023-12-29 21:03:12,15.08845664,0.0001465,53.2165,198.6832,79.5687,280.5471,8.4927e-05,1.064e-05,0.0,0 STARLINK-5127,1 54010U 22125AY  23363.87722803  .00001064  00000-0  84927-4 0  9991,2 54010  53.2165 198.6832 0001465  79.5687 280.5471 15.08845664 68715,6917.863,95.437,540.742,538.715,0.0
54010.0,STARLINK-5127,PAYLOAD,2023-12-30 12:57:04,15.08841384,0.0001477,53.2165,195.7106,80.8323,279.2836,7.5361e-05,9.12e-06,0.0,0 STARLINK-5127,1 54010U 22125AY  23364.53963012  .00000912  00000-0  75361-4 0  9997,2 54010  53.2165 195.7106 0001477  80.8323 279.2836 15.08841384 68818,6917.876,95.437,540.763,538.719,0.0
54010.0,STARLINK-5127,PAYLOAD,2023-12-30 19:18:36,15.08840985,0.0001395,53.2163,194.5201,87.2994,272.8158,5.5782e-05,6e-06,0.0,0 STARLINK-5127,1 54010U 22125AY  23364.80459025  .00000600  00000-0  55782-4 0  9990,2 54010  53.2163 194.5201 0001395  87.2994 272.8158 15.08840985 68905,6917.877,95.437,540.707,538.777,0.0
54010.0,STARLINK-5127,PAYLOAD,2023-12-31 22:20:09,15.08840931,0.0001357,53.2159,189.4642,95.9373,264.1774,1.209e-05,-9.5e-07,0.0,0 STARLINK-5127,1 54010U 22125AY  23365.93066889 -.00000095  00000-0  12090-4 0  9991,2 54010  53.2159 189.4642 0001357  95.9373 264.1774 15.08840931 69020,6917.878,95.437,540.681,538.804,0.0
54010.0,STARLINK-5127,PAYLOAD,2024-01-01 12:38:38,15.08838131,0.0001313,53.2159,186.7876,94.7208,265.3934,2.99e-05,1.88e-06,0.0,0 STARLINK-5127,1 54010U 22125AY  24001.52683035  .00000188  00000-0  29900-4 0  9992,2 54010  53.2159 186.7876 0001313  94.7208 265.3934 15.08838131 69115,6917.886,95.438,540.659,538.843,0.0
54010.0,STARLINK-5127,PAYLOAD,2024-01-01 19:00:10,15.08838765,0.0001333,53.2163,185.598,99.1029,261.0114,2.8548e-05,1.66e-06,0.0,0 STARLINK-5127,1 54010U 22125AY  24001.79178974  .00000166  00000-0  28548-4 0  9995,2 54010  53.2163 185.5980 0001333  99.1029 261.0114 15.08838765 69155,6917.884,95.438,540.671,538.827,0.0
54010.0,STARLINK-5127,PAYLOAD,2024-01-02 12:29:25,15.08835915,0.0001351,53.2165,182.3266,98.3076,261.807,3.0216e-05,1.93e-06,0.0,0 STARLINK-5127,1 54010U 22125AY  24002.52043285  .00000193  00000-0  30216-4 0  9998,2 54010  53.2165 182.3266 0001351  98.3076 261.8070 15.08835915 69313,6917.893,95.438,540.692,538.823,0.0
54010.0,STARLINK-5127,PAYLOAD,2024-01-02 18:50:57,15.08837737,0.0001445,53.2162,181.1373,78.9783,281.1372,4.3341e-05,4.02e-06,0.0,0 STARLINK-5127,1 54010U 22125AY  24002.78539293  .00000402  00000-0  43341-4 0  9991,2 54010  53.2162 181.1373 0001445  78.9783 281.1372 15.08837737 69302,6917.887,95.438,540.752,538.753,0.0
54010.0,STARLINK-5127,PAYLOAD,2024-01-03 17:06:20,15.08849061,0.0001258,53.2166,176.9755,89.8869,270.2267,0.00011849,1.599e-05,0.0,0 STARLINK-5127,1 54010U 22125AY  24003.71273886  .00001599  00000-0  11849-3 0  9993,2 54010  53.2166 176.9755 0001258  89.8869 270.2267 15.08849061 69495,6917.853,95.437,540.588,538.847,0.0
54010.0,STARLINK-5127,PAYLOAD,2024-01-04 18:32:31,15.08834239,0.0001173,53.2157,172.2154,104.4202,255.6921,-4.606e-06,-3.61e-06,0.0,0 STARLINK-5127,1 54010U 22125AY  24004.77259189 -.00000361  00000-0 -46060-5 0  9993,2 54010  53.2157 172.2154 0001173 104.4202 255.6921 15.08834239 69651,6917.898,95.438,540.574,538.952,0.0
54010.0,STARLINK-5127,PAYLOAD,2024-01-05 10:26:23,15.08831105,0.0001324,53.2165,169.2428,81.5701,278.5442,-1.2077e-06,-3.07e-06,0.0,0 STARLINK-5127,1 54010U 22125AY  24005.43499471 -.00000307  00000-0 -12077-5 0  9998,2 54010  53.2165 169.2428 0001324  81.5701 278.5442 15.08831105 69704,6917.908,95.438,540.689,538.857,0.0
54010.0,STARLINK-5127,PAYLOAD,2024-01-05 18:23:19,15.08833779,0.0001382,53.2169,167.7566,79.0616,281.0531,1.9964e-05,3e-07,0.0,0 STARLINK-5127,1 54010U 22125AY  24005.76619426  .00000030  00000-0  19964-4 0  9990,2 54010  53.2169 167.7566 0001382  79.0616 281.0531 15.08833779 69757,6917.899,95.438,540.72,538.808,0.0
54010.0,STARLINK-5127,PAYLOAD,2024-01-06 10:17:10,15.08832979,0.0001374,53.2171,164.7828,78.6479,281.4668,8.8776e-05,1.125e-05,0.0,0 STARLINK-5127,1 54010U 22125AY  24006.42859465  .00001125  00000-0  88776-4 0  9996,2 54010  53.2171 164.7828 0001374  78.6479 281.4668 15.08832979 69904,6917.902,95.438,540.717,538.816,0.0
54010.0,STARLINK-5127,PAYLOAD,2024-01-06 16:38:43,15.08835108,0.0001416,53.2173,163.594,76.5249,283.5901,0.00010149,1.327e-05,0.0,0 STARLINK-5127,1 54010U 22125AY  24006.69355436  .00001327  00000-0  10149-3 0  9996,2 54010  53.2173 163.5940 0001416  76.5249 283.5901 15.08835108 69895,6917.895,95.438,540.74,538.781,0.0
54010.0,STARLINK-5127,PAYLOAD,2024-01-07 13:18:44,15.08838231,0.0001389,53.2176,159.729,77.374,282.7407,5.0041e-05,5.09e-06,0.0,0 STARLINK-5127,1 54010U 22125AY  24007.55467730  .00000509  00000-0  50041-4 0  9990,2 54010  53.2176 159.7290 0001389  77.3740 282.7407 15.08838231 70026,6917.886,95.438,540.712,538.79,0.0
54010.0,STARLINK-5127,PAYLOAD,2024-01-07 16:29:30,15.08837893,0.0001351,53.2172,159.1334,80.7625,279.352,5.8724e-05,6.47e-06,0.0,0 STARLINK-5127,1 54010U 22125AY  24007.68715707  .00000647  00000-0  58724-4 0  9993,2 54010  53.2172 159.1334 0001351  80.7625 279.3520 15.08837893 70092,6917.887,95.438,540.686,538.817,0.0
